      2.10          N: GNSS NAV DATA                        RINEX VERSION / TYPE
fic2rin                                 04/09/2019 00:19:57 PGM / RUN BY / DATE
                                                            END OF HEADER
29 19  4  8 18  0  0.0 2.301940694451e-04-8.981260180008e-12 0.000000000000e+00
    9.200000000000e+01-9.096875000000e+01 3.778728827795e-09 1.272575789147e+00
   -4.945322871208e-06 8.981371065602e-04 9.670853614807e-06 5.153776315689e+03
    1.512000000000e+05-3.166496753693e-08-3.090238247135e+00-5.587935447693e-09
    9.857705841359e-01 2.058750000000e+02 1.583391763263e+00-7.699606433799e-09
   -3.157274370293e-10 1.000000000000e+00 2.048000000000e+03 0.000000000000e+00
    3.400000000000e+00 0.000000000000e+00-1.024454832077e-08 9.200000000000e+01
    1.440000000000e+05 4.000000000000e+00
28 19  4  8 18  0  0.0 7.672929205000e-04 4.547473508865e-13 0.000000000000e+00
    9.000000000000e+01-4.656250000000e+00 4.469471885730e-09 1.399225401251e+00
   -7.152557373047e-07 1.911287556868e-02 2.510845661163e-06 5.153698036194e+03
    1.512000000000e+05-1.862645149231e-09 2.171591410562e+00-4.526227712631e-07
    9.824259701222e-01 3.435312500000e+02-1.470058693594e+00-8.295702692172e-09
   -6.178828801592e-11 1.000000000000e+00 2.048000000000e+03 0.000000000000e+00
    3.400000000000e+00 0.000000000000e+00-1.117587089539e-08 9.000000000000e+01
    1.440000000000e+05 4.000000000000e+00
20 19  4  8 18  0  0.0 5.238079465926e-04 3.410605131648e-13 0.000000000000e+00
    6.000000000000e+01 6.468750000000e+00 5.541659403786e-09-1.949883198610e+00
    5.252659320831e-07 4.349327413365e-03 4.883855581284e-06 5.153672307968e+03
    1.512000000000e+05-5.401670932770e-08-1.179355948589e+00 5.029141902924e-08
    9.300256942746e-01 2.710625000000e+02 2.330575078812e+00-8.621430545759e-09
    1.971510692762e-10 1.000000000000e+00 2.048000000000e+03 0.000000000000e+00
    2.400000000000e+00 0.000000000000e+00-8.381903171539e-09 6.000000000000e+01
    1.440000000000e+05 4.000000000000e+00
26 19  4  8 18  0  0.0 1.707822084427e-04 1.000444171950e-11 0.000000000000e+00
    1.840000000000e+02 1.012500000000e+01 5.227360597694e-09 2.345696303324e+00
    5.885958671570e-07 3.720362554304e-03 1.825392246246e-06 5.153581590652e+03
    1.512000000000e+05-1.192092895508e-07 2.057256037200e+00 2.980232238770e-08
    9.518600479688e-01 3.417500000000e+02 1.576980660832e-01-8.662503685192e-09
    2.142946405177e-12 1.000000000000e+00 2.048000000000e+03 0.000000000000e+00
    2.400000000000e+00 0.000000000000e+00 7.450580596924e-09 1.840000000000e+02
    1.440000000000e+05 4.000000000000e+00
 4 19  4  8 18  0  0.0 1.461808569729e-04 5.570655048359e-12 0.000000000000e+00
    1.820000000000e+02-1.675000000000e+01 4.438042005121e-09-2.254729965182e+00
   -9.275972843170e-07 3.677606582642e-04 1.006573438644e-05 5.153786285400e+03
    1.512000000000e+05 9.313225746155e-09 1.788911818215e-02-1.862645149231e-08
    9.603615520792e-01 1.808750000000e+02-1.676223835440e+00-7.947831059065e-09
   -3.689439394246e-10 1.000000000000e+00 2.048000000000e+03 0.000000000000e+00
    6.850000000000e+00 6.300000000000e+01-8.847564458847e-09 1.820000000000e+02
    1.440300000000e+05 4.000000000000e+00
29 19  4  8 17 59 44.0 2.302005887032e-04-8.981260180008e-12 0.000000000000e+00
    6.000000000000e+01-9.096875000000e+01 3.778728827795e-09 1.270240682234e+00
   -4.945322871208e-06 8.981331484392e-04 9.670853614807e-06 5.153776325226e+03
    1.511840000000e+05-3.166496753693e-08-3.090238112547e+00-5.587935447693e-09
    9.857705855988e-01 2.058750000000e+02 1.583393239347e+00-7.699606433799e-09
   -3.157274370293e-10 1.000000000000e+00 2.048000000000e+03 0.000000000000e+00
    2.400000000000e+00 0.000000000000e+00-1.024454832077e-08 6.000000000000e+01
    1.452000000000e+05 4.000000000000e+00
10 19  4  8 17 59 44.0 7.784180343151e-05-9.436007530894e-12 0.000000000000e+00
    0.000000000000e+00-5.343750000000e+00 4.817700676571e-09 2.603023442786e+00
   -1.937150955200e-07 4.467682330869e-03 5.109235644341e-06 5.153654361725e+03
    1.511840000000e+05-5.401670932770e-08-1.062477183891e+00-5.587935447693e-08
    9.624013514221e-01 2.814062500000e+02-2.703841919766e+00-8.192841264724e-09
    6.857428496565e-11 1.000000000000e+00 2.048000000000e+03 0.000000000000e+00
    2.400000000000e+00 0.000000000000e+00 1.862645149231e-09 0.000000000000e+00
    1.454100000000e+05 4.000000000000e+00
10 19  4  8 19 59 44.0 7.777381688356e-05-9.436007530894e-12 0.000000000000e+00
    4.000000000000e+00-3.593750000000e+00 4.748769233871e-09-2.629963357170e+00
   -2.142041921616e-07 4.467403050512e-03 5.153939127922e-06 5.153654884338e+03
    1.583840000000e+05-1.117587089539e-08-1.062535898108e+00-2.607703208923e-08
    9.624019951061e-01 2.825000000000e+02-2.703846002770e+00-8.150696652089e-09
    6.107397254753e-11 1.000000000000e+00 2.048000000000e+03 0.000000000000e+00
    2.400000000000e+00 0.000000000000e+00 1.862645149231e-09 4.000000000000e+00
    1.512000000000e+05 4.000000000000e+00
29 19  4  8 19 59 44.0 2.301358617842e-04-8.981260180008e-12 0.000000000000e+00
    6.500000000000e+01-8.984375000000e+01 3.831231014721e-09 2.318512227912e+00
   -4.738569259644e-06 8.980799466372e-04 8.821487426758e-06 5.153779386520e+03
    1.583840000000e+05-5.774199962616e-08-3.090293898002e+00-8.195638656616e-08
    9.857680840089e-01 2.183437500000e+02 1.585233417666e+00-7.766394930094e-09
   -2.928693420408e-10 1.000000000000e+00 2.048000000000e+03 0.000000000000e+00
    2.400000000000e+00 0.000000000000e+00-1.024454832077e-08 6.500000000000e+01
    1.512000000000e+05 4.000000000000e+00
 2 19  4  8 20  0  0.0-1.841452904046e-04-9.436007530894e-12 0.000000000000e+00
    1.030000000000e+02-5.968750000000e+00 4.716982195528e-09-2.559269396072e-01
   -2.346932888031e-07 1.889461593237e-02 1.021847128868e-05 5.153682632446e+03
    1.584000000000e+05-1.899898052216e-07-2.169829119464e+00 2.030283212662e-07
    9.540234609637e-01 1.857812500000e+02-1.751328797371e+00-8.369277185417e-09
    3.671581507536e-10 1.000000000000e+00 2.048000000000e+03 0.000000000000e+00
    3.400000000000e+00 0.000000000000e+00-2.048909664154e-08 1.030000000000e+02
    1.512000000000e+05 4.000000000000e+00
 1 19  4  8 20  0  0.0-1.976252533495e-04-8.071765478235e-12 0.000000000000e+00
    6.000000000000e+01 8.437500000000e-01 4.173388124081e-09-5.432142361048e-01
   -2.048909664154e-08 8.625768590719e-03 1.046992838383e-05 5.153655612946e+03
    1.584000000000e+05 5.029141902924e-08-2.102098516909e+00 1.844018697739e-07
    9.748734536553e-01 1.832500000000e+02 6.866140934444e-01-7.923544333140e-09
    3.357282701443e-10 1.000000000000e+00 2.048000000000e+03 0.000000000000e+00
    2.400000000000e+00 0.000000000000e+00 5.587935447693e-09 6.000000000000e+01
    1.512000000000e+05 4.000000000000e+00
 5 19  4  8 20  0  0.0 1.153908669949e-06 0.000000000000e+00 0.000000000000e+00
    2.100000000000e+01 3.312500000000e+00 5.120213277435e-09 2.413613050500e+00
    1.098960638046e-07 5.571113433689e-03 5.096197128296e-06 5.153654115677e+03
    1.584000000000e+05-4.284083843231e-08-1.085455419564e+00-1.080334186554e-07
    9.492364492225e-01 2.768750000000e+02 7.034456798504e-01-8.348204879099e-09
    9.036090675161e-11 1.000000000000e+00 2.048000000000e+03 0.000000000000e+00
    2.400000000000e+00 0.000000000000e+00-1.117587089539e-08 2.100000000000e+01
    1.512000000000e+05 4.000000000000e+00
 3 19  4  8 20  0  0.0 1.880242489278e-04 4.547473508865e-13 0.000000000000e+00
    1.800000000000e+01-5.000000000000e+00 4.798057001190e-09-1.453805404556e+00
   -2.328306436539e-07 1.965104485862e-03 5.373731255531e-06 5.153536117554e+03
    1.584000000000e+05 5.587935447693e-08-1.059280368491e+00-1.005828380585e-07
    9.623735837741e-01 2.786562500000e+02 5.680496887039e-01-8.172126116141e-09
   -2.321525272275e-11 1.000000000000e+00 2.048000000000e+03 0.000000000000e+00
    2.400000000000e+00 0.000000000000e+00 2.328306436539e-09 1.800000000000e+01
    1.512000000000e+05 4.000000000000e+00
15 19  4  8 20  0  0.0-3.194063901901e-04 1.932676241267e-12 0.000000000000e+00
    1.500000000000e+01-3.112500000000e+01 5.257719005101e-09 7.450456484504e-01
   -1.510605216026e-06 1.125628117006e-02 9.126961231232e-06 5.153664764404e+03
    1.584000000000e+05-1.825392246246e-07-1.057101166221e-01 9.126961231232e-08
    9.284501841683e-01 1.882500000000e+02 7.700995278850e-01-8.476424505676e-09
   -5.014494588113e-10 1.000000000000e+00 2.048000000000e+03 0.000000000000e+00
    2.400000000000e+00 0.000000000000e+00-1.071020960808e-08 1.500000000000e+01
    1.512000000000e+05 4.000000000000e+00
23 19  4  8 20  0  0.0-1.909602433443e-04 1.477928890381e-12 0.000000000000e+00
    1.700000000000e+01-1.046875000000e+01 4.858773816004e-09 2.158228193724e-01
   -4.302710294724e-07 1.305634481832e-02 9.864568710327e-06 5.153607683182e+03
    1.584000000000e+05-6.891787052155e-08-3.161439992951e-02 2.663582563400e-07
    9.437846758029e-01 1.827187500000e+02-2.277885377789e+00-8.285345117881e-09
   -4.364467511876e-10 1.000000000000e+00 2.048000000000e+03 0.000000000000e+00
    2.400000000000e+00 0.000000000000e+00-2.002343535423e-08 1.700000000000e+01
    1.512000000000e+05 4.000000000000e+00
21 19  4  8 20  0  0.0-2.163429744542e-04 7.617018127348e-12 0.000000000000e+00
    1.700000000000e+01 2.006250000000e+01 4.488044087908e-09-2.357311375481e+00
    1.009553670883e-06 2.471797715407e-02 1.021102070808e-05 5.153764333725e+03
    1.584000000000e+05 3.054738044739e-07-2.165043869076e+00 1.639127731323e-07
    9.477470186789e-01 1.698125000000e+02-1.454362283341e+00-7.598173637287e-09
    3.714440435639e-10 1.000000000000e+00 2.048000000000e+03 0.000000000000e+00
    2.400000000000e+00 0.000000000000e+00-1.024454832077e-08 1.700000000000e+01
    1.512000000000e+05 4.000000000000e+00
